[Satellite]
VERSION=1.1
NAME=ORBCOMM FM16 [+]
NICKNAME=ORBCOMM FM16 [+]
TLE1=1 25417U 98046E   17186.21046675  .00000036  00000-0  64256-4 0  9996
TLE2=2 25417  44.9973 176.2823 0003756 241.7054 118.3413 14.32571165987426
